Name1,Name2,Name3,Address1,Address2,Address3,City,State,ZIP_Code,Contact,Note,Keys
Indian Rivers Mental Health,,,,,,Northport,AL,35473,(205)391-0114,,SA/TX/RS/WN/SF/MD/PA/
Petersburg Mental Health Services Inc,P.O. Box 1309,,,,,Petersburg,AK,99833,(907)772-3332,,MH-SA/TX/OP/CO/WN/DU/SF/MD/SI/PI/MI/SS/
Upper Tanana Alcohol Program,Mile Post 123 Tok Cutoff,,,,,Tok,AK,99780,(907)883-5185 Intake: (800)478-5185,,SA/TX/OP/AD/DU/
Fort Defiance Outpatient Treatment Ctr,Fort Defiance Agency Dawn of Recovery,Old Fort Defiance Chapter House,,,,Fort Defiance,AZ,86504,(928)729-4012 Hotline: (928)729-4012,,SA/TX/OP/PA/N23/
Capstone Treatment Center,,,,,,Searcy,AR,72145,(501)729-4479 Intake: (866)729-4479,,SA/TX/RL/OP/AD/CO/SF/PI/MI/
National Therapeutic Services Inc,Joshua House,,,,,Costa Mesa,CA,92627,(949)650-4334,,SA/TX/HH/RL/CO/DU/SF/
Lake Arrowhead Treatment Center,,,,,,Lake Arrowhead,CA,92352,(310)753-6866 Intake: (909)336-4442,,SA/TX/DT/BU/RS/RL/OP/PH/SF/PI/SP/F70/
Koinonia Foster Homes Inc,Koinonia Group Homes,,,,,Loomis,CA,95650,(916)652-0171,,SA/TX/RL/AD/MD/
910 Vine Street,,,,,,Los Angeles,CA,90038,(323)461-3106,,SA/TX/OP/PA/
Journey Malibu,,,,,,Malibu,CA,90265,(310)456-2551,,MH-SA/TX/DT/HH/BU/RS/RL/OP/PH/CO/GL/SE/WN/BC/MN/CJ/SF/MD/MC/SI/PI/MI/AH/
Passages,,,,,,Malibu,CA,90265,(888)777-8525,,SA/TX/DT/BU/RS/RL/CO/SF/PI/
Promises Residential Treatment Center,,,,,,Malibu,CA,90265,(310)390-2340 Intake: (866)627-9970 Hotline: (866)627-9970,,MH-SA/TX/DT/BU/RS/RL/SF/
Westside Sober Living Centers Inc,Promises/Residential Trt Ctr/Malibu,,,,,Malibu,CA,90265,(310)390-2340 Hotline: (866)390-2340,,MH-SA/TX/DT/BU/RS/RL/CO/SF/
Westside Sober Living Centers Inc,Promises/Outpatient/Malibu,,,,,Malibu,CA,90265,(310)390-2340 Hotline: (866)310-2340,,MH-SA/TX/DT/BU/RS/RL/SF/
Touchstones,,,,,,Orange,CA,92856,(714)639-5542 Intake: (714)639-5542x225,,SA/TX/DT/RS/RL/AD/SF/PI/MI/SS/AH/SP/
Whiteside Manor,"5919, 5925, 5929, and 5935 Challen Str",,,,,Riverside,CA,92501,(951)343-9485,,MH-SA/TX/DT/BU/RS/RL/CO/SF/PI/SS/AH/SP/
607 Donna Way,,,,,,San Jacinto,CA,92583,(951)654-0803x3220 Intake: (800)851-5816x3220 Hotlines: (800)851-5816x3220 (951)654- 0803x3220,,MH-SA/TX/OP/AD/CO/HV/SE/PW/WN/MN/CJ/MD/MC/SI/PI/AR/PA/
Rangeview Counseling Center,Club Meadow Ridge,,,,,Fraser,CO,80442,(303)447-2038,DWI/DUI Clients Only,SA/TX/OP/DU/SF/SS/
90 East Ridge Road,,,,,,Ridgefield,CT,6877,(203)438-8680 Intake: (203)792-4515,,MH-SA/TX/OP/DU/SF/MD/SI/PI/AR/
Stephanies Family Sober House,,,,,,Lake Worth,FL,33461,(561)541-9406,,HH/
Unique Ladys of Character,ULOC 01,,,,,Tampa,FL,33605,(813)489-4500,,HH/
Unique Ladys of Character,ULOC 02,,,,,Tampa,FL,33617,(813)770-1138,,HH/
Directorate of Human Resources,Army Substance Abuse Program,Buildings 324 and 2617,,,,Fort Benning,GA,31905,(706)545-8362,,SA/TX/OP/WN/MN/PI/MI/PA/AH/
First Choice Recovery of Statesboro,1215-B Merchant Way,,,,,Statesboro,GA,30458,(912)681-3682,Methadone Clients Only,SA/TX/DT/MM/DM/OP/CO/SF/
Substance Abuse Counseling Center,Marine Corps Base Hawaii,,,,,M C B H Kaneohe Bay,HI,96863,(808)257-3900,,SA/TX/OP/
2813 West 5th Avenue,,,,,,Chicago,IL,60612,(773)233-8524x4746,,TX/OP/DU/SF/MD/PI/SS/
1724 1st Street,,,,,,Highland Park,IL,60035,(847)433-1303,,SA/TX/OP/DU/SF/MD/SS/AH/
Prairie View Inc,McPherson,,,,,McPherson,KS,67460,(620)245-5000,,MH-SA/TX/OP/AD/SF/MD/MC/SI/PI/MI/SP/
Martin Fernandez,Gunsmoke,,,,,Scott City,KS,67871,(620)872-5214,,SA/TX/OP/DU/SF/
102 South First Street,,,,,,Nicholasville,KY,40356,(859)887-0325,,MH-SA/TX/OP/DU/SF/SS/AH/
Owensboro Area Shelter and Information Services (OASIS),,,,,,Owensboro,KY,42302,(270)685-0260 Hotlines: (800)882-2873 (270)685-0260,,TX/HH/RS/RL/WN/BC/PA/AH/SP/
Western Kentucky Drug and Alcohol,Intervention Services Inc/Paducah,6th and Broadway,,,,Paducah,KY,42001,(270)247-4212 Intake: (800)273-1282,,SA/TX/OP/SF/SP/
Oak Grove Courthouse,,,,,,Oak Grove,LA,71263,(318)428-9202,,SA/TX/OP/SF/SS/PA/
Volunteers of America,Project Rebound,Long Island Campus,,,,Boston,MA,2122,(617)770-0453x2 Intake: (617)661-3991,,SA/TX/RS/RL/AD/CO/MD/SI/PI/
Boston Public Health Commission,Transitions,Long Island Health Campus,,,,Dorchester,MA,2122,(617)534-9150,,SA/TX/RS/PA/
260 Beacon Street,,,,,,Somerville,MA,2143,(617)661-0405 Intake: (617)661-5700,,SA/TX/BU/OP/SE/WN/SF/MD/MC/SI/PI/MI/SS/PA/
33 East Forest,,,,,,Detroit,MI,48201,(313)833-3962,,SA/TX/OP/AD/SF/PA/AH/SP/
Northpointe Counseling Services,7204-East Grand River,Lot 143,,,,Portland,MI,48875,(616)523-6677 Intake: (517)526-4353,,SA/TX/OP/PH/AD/PW/WN/DU/CJ/SF/MD/
Yap Memorial Hospital,Department of Health Services,,,,,Yap,FM,96943,(691)350-2115x40 Intakes: (691)350-2115x123 (691)350-2115,,GH/TX/DT/HI/AD/CO/HV/GL/SE/PW/WN/MN/CJ/PA/
3028 Locust Street,,,,,,Saint Louis,MO,63103,(314)621-9009,,SA/TX/OP/PH/PW/SF/MD/PI/SS/PA/AH/
Crystal Creek Lodge Treatment Center,Blackfeet Indian Reservation,Old Hospital Hill,,,,Browning,MT,59417,(406)338-6330 Intakes: (406)338-6330x6316 (406)338- 6320x6166 Hotline: (800)338DRUG,DWI/DUI Clients Only,MH-SA/TX/RS/RL/OP/CO/SE/PW/WN/MN/DU/CJ/SF/MD/AR/
Confederated Salish/Kootenai Tribes,,,,,,Saint Ignatius,MT,59865,(406)745-3525x5014,,MH-SA/TX/OP/AD/DU/MD/MC/SI/PI/MI/AR/PA/
Saint Monicas,Project Mother Child,,,,,Lincoln,NE,68510,(402)441-3768,,SA/TX/RL/WN/BC/SF/MD/SI/PI/SS/AH/SP/
Ponca Tribe of Nebraska,,,,,,Niobrara,NE,68760,(402)857-3391,,MH-SA/TX/OP/PA/
Pueblo of Nambe,Nambe Pueblo,15A NP 102 West,,,,Santa Fe,NM,87506,(505)455-0133x14,,SA/TX/OP/CO/SF/MD/PI/PA/
Horizons,Daybreak,,,,,Carrboro,NC,27510,(919)966-9803,,MH-SA/TX/BU/RL/PW/WN/BC/MD/
Freedom House,P.O. Box 38215,,,,,Greensboro,NC,27438,(336)286-7622,,SA/TX/RL/OP/PW/WN/BC/CJ/SF/MD/
Wichita and Affiliated Tribes of OK,Health Prog Bldg at Government HQ,,,,,Anadarko,OK,73005,(405)247-2425,,SA/TX/OP/PA/
Narconon of Oklahoma Inc,Narconon Arrowhead,HC 67 Box 5,,,,Canadian,OK,74425,(918)339-5800 Intake: (800)468-6933 Hotlines: (800)468-6933 (918)339-5800,,SA/TX/DT/RS/RL/GL/SE/WN/MN/SF/PI/
Reading Hospital and Medical Center,Kutztown University,Boehm Science Center,,,,Kutztown,PA,19530,(610)988-8070,,SA/TX/OP/SF/MD/PI/
Ministry of Health,Koror,,,,,Palau,PW,96940,(680)488-1907 Intakes: (680)488-4711 (680)488-1164,,MH-SA/TX/DT/HI/OP/PH/AD/WN/CJ/SF/PI/SS/PA/
Renewal House Inc,P.O. Box 280356,,,,,Nashville,TN,37228,(615)255-5222,,MH-SA/TX/HH/OP/CO/PW/WN/SF/SI/AR/SS/PA/AH/
Womens Home Inc,,,,,,Arlington,VA,22207,(703)237-2822 Intake: (703)237-2822x0,,SA/TX/HH/RL/WN/SF/
Sagebrush Treatment Inc,Inpatient/Residential,P.O. Box 554,,,,Great Falls,VA,22066,(888)406-7444 Intake: (703)444-9141,,SA/TX/DT/BU/RS/RL/CO/WN/MN/SF/PI/SS/
Spokane Addiction Recovery Centers,(SPARC)/Residential Long Term,,,,,Spokane,WA,99204,(509)624-3251,,SA/TX/HH/RS/CO/WN/MN/SF/MD/SI/PI/AR/AH/
Prestera Center for MH Services Inc,One Prestera Way,,,,,Huntington,WV,25705,(304)525-7851,,MH-SA/TX/OP/AD/CO/SF/MD/MC/SI/PI/MI/SS/PA/
Stockbridge Munsee Health/Wellness Ctr,Behavioral Health Department,West 12802 County A,,,,Bowler,WI,54416,(715)793-3000,,MH-SA/TX/OP/WN/MN/SF/MD/MC/SI/PI/MI/
Marquette Chemical Dependency Service,North 3829 South 22,,,,,Montello,WI,53949,(608)297-2085,,SA/TX/OP/AD/DU/SF/MD/MC/SI/PI/MI/
Substance Abuse Counseling Center,Marine and Family Services Center,Marine Corps Community Services,,MCAS Miramar,,San Diego,CA,92145,(858)577-6585 Hotlines: (858)577-6585 (858)577-9849,,MH/TX/OP/PH/CO/HV/GL/SE/PW/WN/MN/MI/SP/
Cenla Chemical Dependency Council,Gateway Adolescent Unit,Central Louisiana State Hospital,,Unit 6,,Pineville,LA,71360,(318)484-6895 Intake: (318)484-6898,,SA/TX/RL/AD/SF/SI/PI/SS/PA/
Lac Vieux Desert,Behavioral Health Services,E23968 Pow Wow Trail,,P.O. Box 249,,Watersmeet,MI,49969,(906)358-0252,,MH-SA/TX/OP/DU/CJ/SF/MD/MC/PI/MI/AR/
Brattleboro Retreat,Adult Alcohol Abuse Program/Tyler One,Anna Marsh Lane,,P.O. Box 803,,Brattleboro,VT,5302,(800)345-5550x6182 Intake: (800)345-5550,,MH-SA/TX/DT/MM/DM/BU/HI/OP/PH/AD/CO/GL/SF/MD/MC/PI/MI/AH/
Brattleboro Retreat,Starting Now,Anna Marsh Lane,,P.O. Box 803,,Brattleboro,VT,5302,(802)258-3705,,SA/TX/BU/OP/SF/MD/MC/SI/PI/MI/
